[
  {
    "OBJECT_NAME": "STARLINK-11237 [DTC]",
    "OBJECT_ID": "24155L",
    "EPOCH": "2025-11-11T02:49:28.195680",
    "MEAN_MOTION": 15.69717538,
    "ECCENTRICITY": 6.88e-05,
    "INCLINATION": 53.1581,
    "RA_OF_ASC_NODE": 205.4492,
    "ARG_OF_PERICENTER": 78.7203,
    "MEAN_ANOMALY": 281.3892,
    "EPHEMERIS_TYPE": 0,
    "CLASSIFICATION_TYPE": "U",
    "NORAD_CAT_ID": 60934,
    "ELEMENT_SET_NO": 999,
    "REV_AT_EPOCH": 6979,
    "BSTAR": 4.2128000000000006e-06,
    "MEAN_MOTION_DOT": -7.7e-07,
    "MEAN_MOTION_DDOT": 0.0,
    "TLE_LINE1": "1 60934U 24155L   25315.11768745 -.00000077  00000+0  42128-5 0  9990",
    "TLE_LINE2": "2 60934  53.1581 205.4492 0000688  78.7203 281.3892 15.69717538 69798",
    "COMMENT": "Grouped by shell and plane from TLE"
  },
  {
    "OBJECT_NAME": "STARLINK-11253 [DTC]",
    "OBJECT_ID": "24155M",
    "EPOCH": "2025-11-11T02:35:30.073344",
    "MEAN_MOTION": 15.69682534,
    "ECCENTRICITY": 0.0001355,
    "INCLINATION": 53.1577,
    "RA_OF_ASC_NODE": 206.1189,
    "ARG_OF_PERICENTER": 78.7708,
    "MEAN_ANOMALY": 281.3462,
    "EPHEMERIS_TYPE": 0,
    "CLASSIFICATION_TYPE": "U",
    "NORAD_CAT_ID": 60935,
    "ELEMENT_SET_NO": 999,
    "REV_AT_EPOCH": 6977,
    "BSTAR": 5.4267e-05,
    "MEAN_MOTION_DOT": 5.983e-05,
    "MEAN_MOTION_DDOT": 0.0,
    "TLE_LINE1": "1 60935U 24155M   25315.10798696  .00005983  00000+0  54267-4 0  9994",
    "TLE_LINE2": "2 60935  53.1577 206.1189 0001355  78.7708 281.3462 15.69682534 69775",
    "COMMENT": "Grouped by shell and plane from TLE"
  },
  {
    "OBJECT_NAME": "STARLINK-11241 [DTC]",
    "OBJECT_ID": "24155N",
    "EPOCH": "2025-11-11T02:28:26.760000",
    "MEAN_MOTION": 15.69654635,
    "ECCENTRICITY": 0.0001388,
    "INCLINATION": 53.1597,
    "RA_OF_ASC_NODE": 206.0864,
    "ARG_OF_PERICENTER": 78.6655,
    "MEAN_ANOMALY": 281.4519,
    "EPHEMERIS_TYPE": 0,
    "CLASSIFICATION_TYPE": "U",
    "NORAD_CAT_ID": 60936,
    "ELEMENT_SET_NO": 999,
    "REV_AT_EPOCH": 6977,
    "BSTAR": 0.00010728,
    "MEAN_MOTION_DOT": 0.00012397,
    "MEAN_MOTION_DDOT": 0.0,
    "TLE_LINE1": "1 60936U 24155N   25315.10308750  .00012397  00000+0  10728-3 0  9993",
    "TLE_LINE2": "2 60936  53.1597 206.0864 0001388  78.6655 281.4519 15.69654635 69778",
    "COMMENT": "Grouped by shell and plane from TLE"
  },
  {
    "OBJECT_NAME": "STARLINK-11686 [DTC]",
    "OBJECT_ID": "25119A",
    "EPOCH": "2025-11-11T01:23:25.510560",
    "MEAN_MOTION": 15.70894151,
    "ECCENTRICITY": 0.0001695,
    "INCLINATION": 43.0004,
    "RA_OF_ASC_NODE": 204.492,
    "ARG_OF_PERICENTER": 295.8481,
    "MEAN_ANOMALY": 64.2212,
    "EPHEMERIS_TYPE": 0,
    "CLASSIFICATION_TYPE": "U",
    "NORAD_CAT_ID": 64233,
    "ELEMENT_SET_NO": 999,
    "REV_AT_EPOCH": 2658,
    "BSTAR": 0.0019196,
    "MEAN_MOTION_DOT": 0.00254114,
    "MEAN_MOTION_DDOT": 0.0,
    "TLE_LINE1": "1 64233U 25119A   25315.05793415  .00254114  00000+0  19196-2 0  9990",
    "TLE_LINE2": "2 64233  43.0004 204.4920 0001695 295.8481  64.2212 15.70894151 26589",
    "COMMENT": "Grouped by shell and plane from TLE"
  },
  {
    "OBJECT_NAME": "STARLINK-11682 [DTC]",
    "OBJECT_ID": "25119B",
    "EPOCH": "2025-11-11T01:45:03.098592",
    "MEAN_MOTION": 15.70923121,
    "ECCENTRICITY": 0.0001489,
    "INCLINATION": 42.998,
    "RA_OF_ASC_NODE": 204.6129,
    "ARG_OF_PERICENTER": 292.1052,
    "MEAN_ANOMALY": 67.9657,
    "EPHEMERIS_TYPE": 0,
    "CLASSIFICATION_TYPE": "U",
    "NORAD_CAT_ID": 64234,
    "ELEMENT_SET_NO": 999,
    "REV_AT_EPOCH": 2658,
    "BSTAR": 0.0028524,
    "MEAN_MOTION_DOT": 0.00384343,
    "MEAN_MOTION_DDOT": 0.0,
    "TLE_LINE1": "1 64234U 25119B   25315.07295253  .00384343  00000+0  28524-2 0  9993",
    "TLE_LINE2": "2 64234  42.9980 204.6129 0001489 292.1052  67.9657 15.70923121 26582",
    "COMMENT": "Grouped by shell and plane from TLE"
  },
  {
    "OBJECT_NAME": "STARLINK-11675 [DTC]",
    "OBJECT_ID": "25119C",
    "EPOCH": "2025-11-11T00:59:10.690080",
    "MEAN_MOTION": 15.70921563,
    "ECCENTRICITY": 0.0001618,
    "INCLINATION": 42.9984,
    "RA_OF_ASC_NODE": 204.3549,
    "ARG_OF_PERICENTER": 287.8884,
    "MEAN_ANOMALY": 72.1807,
    "EPHEMERIS_TYPE": 0,
    "CLASSIFICATION_TYPE": "U",
    "NORAD_CAT_ID": 64235,
    "ELEMENT_SET_NO": 999,
    "REV_AT_EPOCH": 2658,
    "BSTAR": 0.0026926,
    "MEAN_MOTION_DOT": 0.00361757,
    "MEAN_MOTION_DDOT": 0.0,
    "TLE_LINE1": "1 64235U 25119C   25315.04109595  .00361757  00000+0  26926-2 0  9992",
    "TLE_LINE2": "2 64235  42.9984 204.3549 0001618 287.8884  72.1807 15.70921563 26581",
    "COMMENT": "Grouped by shell and plane from TLE"
  },
  {
    "OBJECT_NAME": "STARLINK-11691 [DTC]",
    "OBJECT_ID": "25119D",
    "EPOCH": "2025-11-11T02:07:46.478496",
    "MEAN_MOTION": 15.70804661,
    "ECCENTRICITY": 8.43e-05,
    "INCLINATION": 42.9967,
    "RA_OF_ASC_NODE": 203.8477,
    "ARG_OF_PERICENTER": 302.4899,
    "MEAN_ANOMALY": 57.5887,
    "EPHEMERIS_TYPE": 0,
    "CLASSIFICATION_TYPE": "U",
    "NORAD_CAT_ID": 64236,
    "ELEMENT_SET_NO": 999,
    "REV_AT_EPOCH": 2659,
    "BSTAR": 0.0,
    "MEAN_MOTION_DOT": -0.00026534,
    "MEAN_MOTION_DDOT": 0.0,
    "TLE_LINE1": "1 64236U 25119D   25315.08873239 -.00026534  00000+0 -20427-3 0  9994",
    "TLE_LINE2": "2 64236  42.9967 203.8477 0000843 302.4899  57.5887 15.70804661 26591",
    "COMMENT": "Grouped by shell and plane from TLE"
  },
  {
    "OBJECT_NAME": "STARLINK-11670 [DTC]",
    "OBJECT_ID": "25119E",
    "EPOCH": "2025-11-11T01:22:06.393216",
    "MEAN_MOTION": 15.7093352,
    "ECCENTRICITY": 0.0001981,
    "INCLINATION": 42.9987,
    "RA_OF_ASC_NODE": 204.4822,
    "ARG_OF_PERICENTER": 271.5255,
    "MEAN_ANOMALY": 88.5386,
    "EPHEMERIS_TYPE": 0,
    "CLASSIFICATION_TYPE": "U",
    "NORAD_CAT_ID": 64237,
    "ELEMENT_SET_NO": 999,
    "REV_AT_EPOCH": 2658,
    "BSTAR": 0.001828,
    "MEAN_MOTION_DOT": 0.00242015,
    "MEAN_MOTION_DDOT": 0.0,
    "TLE_LINE1": "1 64237U 25119E   25315.05701844  .00242015  00000+0  18280-2 0  9999",
    "TLE_LINE2": "2 64237  42.9987 204.4822 0001981 271.5255  88.5386 15.70933520 26585",
    "COMMENT": "Grouped by shell and plane from TLE"
  },
  {
    "OBJECT_NAME": "STARLINK-11708 [DTC]",
    "OBJECT_ID": "25119F",
    "EPOCH": "2025-11-11T01:29:44.526624",
    "MEAN_MOTION": 15.71051185,
    "ECCENTRICITY": 0.0005476,
    "INCLINATION": 43.0004,
    "RA_OF_ASC_NODE": 204.5263,
    "ARG_OF_PERICENTER": 266.5011,
    "MEAN_ANOMALY": 93.523,
    "EPHEMERIS_TYPE": 0,
    "CLASSIFICATION_TYPE": "U",
    "NORAD_CAT_ID": 64238,
    "ELEMENT_SET_NO": 999,
    "REV_AT_EPOCH": 2658,
    "BSTAR": 0.0019046,
    "MEAN_MOTION_DOT": 0.00253912,
    "MEAN_MOTION_DDOT": 0.0,
    "TLE_LINE1": "1 64238U 25119F   25315.06232091  .00253912  00000+0  19046-2 0  9993",
    "TLE_LINE2": "2 64238  43.0004 204.5263 0005476 266.5011  93.5230 15.71051185 26588",
    "COMMENT": "Grouped by shell and plane from TLE"
  },
  {
    "OBJECT_NAME": "STARLINK-11683 [DTC]",
    "OBJECT_ID": "25119G",
    "EPOCH": "2025-11-11T01:52:30.372384",
    "MEAN_MOTION": 15.70948131,
    "ECCENTRICITY": 0.0001758,
    "INCLINATION": 42.9983,
    "RA_OF_ASC_NODE": 203.7566,
    "ARG_OF_PERICENTER": 280.3753,
    "MEAN_ANOMALY": 79.6916,
    "EPHEMERIS_TYPE": 0,
    "CLASSIFICATION_TYPE": "U",
    "NORAD_CAT_ID": 64239,
    "ELEMENT_SET_NO": 999,
    "REV_AT_EPOCH": 2659,
    "BSTAR": 0.0023803,
    "MEAN_MOTION_DOT": 0.00318409,
    "MEAN_MOTION_DDOT": 0.0,
    "TLE_LINE1": "1 64239U 25119G   25315.07812931  .00318409  00000+0  23803-2 0  9991",
    "TLE_LINE2": "2 64239  42.9983 203.7566 0001758 280.3753  79.6916 15.70948131 26598",
    "COMMENT": "Grouped by shell and plane from TLE"
  },
  {
    "OBJECT_NAME": "STARLINK-11684 [DTC]",
    "OBJECT_ID": "25119H",
    "EPOCH": "2025-11-11T02:38:22.221888",
    "MEAN_MOTION": 15.71024946,
    "ECCENTRICITY": 0.0003764,
    "INCLINATION": 42.9987,
    "RA_OF_ASC_NODE": 204.0121,
    "ARG_OF_PERICENTER": 247.7622,
    "MEAN_ANOMALY": 112.2847,
    "EPHEMERIS_TYPE": 0,
    "CLASSIFICATION_TYPE": "U",
    "NORAD_CAT_ID": 64240,
    "ELEMENT_SET_NO": 999,
    "REV_AT_EPOCH": 2659,
    "BSTAR": 0.0022098,
    "MEAN_MOTION_DOT": 0.00295749,
    "MEAN_MOTION_DDOT": 0.0,
    "TLE_LINE1": "1 64240U 25119H   25315.10997942  .00295749  00000+0  22098-2 0  9999",
    "TLE_LINE2": "2 64240  42.9987 204.0121 0003764 247.7622 112.2847 15.71024946 26593",
    "COMMENT": "Grouped by shell and plane from TLE"
  },
  {
    "OBJECT_NAME": "STARLINK-11689 [DTC]",
    "OBJECT_ID": "25119J",
    "EPOCH": "2025-11-11T02:23:04.717824",
    "MEAN_MOTION": 15.70901899,
    "ECCENTRICITY": 0.0002556,
    "INCLINATION": 42.9999,
    "RA_OF_ASC_NODE": 203.9277,
    "ARG_OF_PERICENTER": 251.7056,
    "MEAN_ANOMALY": 108.3534,
    "EPHEMERIS_TYPE": 0,
    "CLASSIFICATION_TYPE": "U",
    "NORAD_CAT_ID": 64241,
    "ELEMENT_SET_NO": 999,
    "REV_AT_EPOCH": 2659,
    "BSTAR": 0.0012675,
    "MEAN_MOTION_DOT": 0.00165921,
    "MEAN_MOTION_DDOT": 0.0,
    "TLE_LINE1": "1 64241U 25119J   25315.09936016  .00165921  00000+0  12675-2 0  9991",
    "TLE_LINE2": "2 64241  42.9999 203.9277 0002556 251.7056 108.3534 15.70901899 26590",
    "COMMENT": "Grouped by shell and plane from TLE"
  },
  {
    "OBJECT_NAME": "STARLINK-11690 [DTC]",
    "OBJECT_ID": "25119K",
    "EPOCH": "2025-11-11T02:15:26.324352",
    "MEAN_MOTION": 15.70887374,
    "ECCENTRICITY": 0.0001487,
    "INCLINATION": 42.999,
    "RA_OF_ASC_NODE": 203.8854,
    "ARG_OF_PERICENTER": 275.1258,
    "MEAN_ANOMALY": 84.944,
    "EPHEMERIS_TYPE": 0,
    "CLASSIFICATION_TYPE": "U",
    "NORAD_CAT_ID": 64242,
    "ELEMENT_SET_NO": 999,
    "REV_AT_EPOCH": 2659,
    "BSTAR": 0.0011124000000000002,
    "MEAN_MOTION_DOT": 0.001451,
    "MEAN_MOTION_DDOT": 0.0,
    "TLE_LINE1": "1 64242U 25119K   25315.09405468  .00145100  00000+0  11124-2 0  9999",
    "TLE_LINE2": "2 64242  42.9990 203.8854 0001487 275.1258  84.9440 15.70887374 26594",
    "COMMENT": "Grouped by shell and plane from TLE"
  }
]